NOAA 15                 
1 25338U 98030A   19085.56261004  .00000010  00000-0  23106-4 0  9995
2 25338  98.7545 106.9493 0011436 124.6692 235.5567 14.25899306 85269
NOAA 18                 
1 28654U 05018A   19085.54962292  .00000057  00000-0  56082-4 0  9998
2 28654  99.1076 131.2127 0015013  57.4059 302.8559 14.12411521713641
METOP-A                 
1 29499U 06044A   19085.51599389 -.00000019  00000-0  10968-4 0  9998
2 29499  98.5856 141.0517 0002106 103.0322  36.1320 14.21544981645105
NOAA 19                 
1 33591U 09005A   19085.52754840  .00000048  00000-0  51435-4 0  9997
2 33591  99.1757  74.6349 0012993 253.5970 106.3773 14.12340788522025
METOP-B                 
1 38771U 12049A   19085.48178543 -.00000015  00000-0  13040-4 0  9994
2 38771  98.7137 145.9449 0001356 146.6687 281.6987 14.21483757338234
SARAL                   
1 39086U 13009A   19085.53253889 -.00000011  00000-0  12233-4 0  9993
2 39086  98.5414 273.0234 0002022 115.9163 244.2229 14.32034114317753
METOP-C                 
1 43689U 18087A   19085.09292211 -.00000044  00000-0  00000+0 0  9991
2 43689  98.7141 145.8566 0001881 185.0981 175.0188 14.21481320 19755
